ONEWEB-0517             
1 54135U 22138Y   25292.18090518  .00000124  00000+0  27850-3 0  9997
2 54135  87.9270 352.9029 0001628  94.3016 265.8303 13.19724399145042
ONEWEB-0518             
1 54136U 22138Z   25292.19986641  .00000096  00000+0  20798-3 0  9992
2 54136  87.9254 352.9307 0001816 104.3861 255.7474 13.19724199145048
ONEWEB-0519             
1 54137U 22138AA  25292.22513515  .00000031  00000+0  45257-4 0  9990
2 54137  87.9268 352.8857 0001655  96.8838 263.2483 13.19723961145054
ONEWEB-0520             
1 54138U 22138AB  25292.18407200  .00000018  00000+0  13153-4 0  9994
2 54138  87.9269 352.8978 0001845 109.1883 250.9450 13.19724540145038
ONEWEB-0521             
1 54139U 22138AC  25292.21724806  .00000002  00000+0 -26175-4 0  9995
2 54139  87.9267 352.8769 0001681  93.1555 266.9770 13.19724663144982
ONEWEB-0522             
1 54140U 22138AD  25292.19672105  .00000098  00000+0  21203-3 0  9998
2 54140  87.9267 352.8815 0001837 105.4344 254.6992 13.19725891145022
ONEWEB-0523             
1 54141U 22138AE  25292.27539397  .00000158  00000+0  35545-3 0  9994
2 54141  87.9204 322.4889 0002319  75.3321 284.8069 13.20770137147504
ONEWEB-0524             
1 54142U 22138AF  25292.11284136  .00001061  00000+0  25774-2 0  9992
2 54142  87.9214 322.5228 0002723  92.8579 267.2866 13.20780054147488
ONEWEB-0525             
1 54143U 22138AG  25292.21566491 -.00000009  00000+0 -53896-4 0  9992
2 54143  87.9268 352.9003 0001820 109.3725 250.7604 13.19724429145049
ONEWEB-0526             
1 54144U 22138AH  25292.24883481  .00000006  00000+0 -18171-4 0  9990
2 54144  87.9268 352.8802 0001919 101.9385 258.1963 13.19724560145029
ONEWEB-0529             
1 54145U 22138AJ  25292.25198993 -.00000037  00000+0 -12363-3 0  9990
2 54145  87.9253 352.9152 0001879 106.9675 253.1664 13.19724058145042
ONEWEB-0531             
1 54146U 22138AK  25292.32591382  .00000014  00000+0  24857-5 0  9994
2 54146  87.9207 322.4708 0002543  79.8909 280.2511 13.20771120147518
ONEWEB-0535             
1 54147U 22138AL  25292.20935047  .00000093  00000+0  20018-3 0  9992
2 54147  87.9268 352.8834 0001934  88.3215 271.8139 13.19724371145054
ONEWEB-0536             
1 54148U 22138AM  25292.31327138 -.00000002  00000+0 -36263-4 0  9993
2 54148  87.9207 322.5203 0002779  82.1297 278.0152 13.20769575147505
ONEWEB-0527             
1 54642U 22166A   25292.22920893  .00000031  00000+0  42883-4 0  9995
2 54642  87.9165 292.0776 0001937  91.7694 268.3662 13.21887803139702
ONEWEB-0528             
1 54643U 22166B   25292.31142963  .00000059  00000+0  11140-3 0  9991
2 54643  87.9169 292.0646 0001915  92.7786 267.3567 13.21861411139724
