[{"OBJECT_NAME":"ONEWEB-0517","OBJECT_ID":"2022-138Y","EPOCH":"2025-10-19T04:20:30.207552","MEAN_MOTION":13.19724399,"ECCENTRICITY":0.00016281,"INCLINATION":87.927,"RA_OF_ASC_NODE":352.9029,"ARG_OF_PERICENTER":94.3016,"MEAN_ANOMALY":265.8303,"EPHEMERIS_TYPE":0,"CLASSIFICATION_TYPE":"U","NORAD_CAT_ID":54135,"ELEMENT_SET_NO":999,"REV_AT_EPOCH":14504,"BSTAR":0.00027849913,"MEAN_MOTION_DOT":1.24e-6,"MEAN_MOTION_DDOT":0},{"OBJECT_NAME":"ONEWEB-0518","OBJECT_ID":"2022-138Z","EPOCH":"2025-10-19T04:47:48.457824","MEAN_MOTION":13.19724199,"ECCENTRICITY":0.00018167,"INCLINATION":87.9254,"RA_OF_ASC_NODE":352.9307,"ARG_OF_PERICENTER":104.3861,"MEAN_ANOMALY":255.7474,"EPHEMERIS_TYPE":0,"CLASSIFICATION_TYPE":"U","NORAD_CAT_ID":54136,"ELEMENT_SET_NO":999,"REV_AT_EPOCH":14504,"BSTAR":0.000207983,"MEAN_MOTION_DOT":9.6e-7,"MEAN_MOTION_DDOT":0},{"OBJECT_NAME":"ONEWEB-0519","OBJECT_ID":"2022-138AA","EPOCH":"2025-10-19T05:24:11.676960","MEAN_MOTION":13.19723961,"ECCENTRICITY":0.00016553,"INCLINATION":87.9268,"RA_OF_ASC_NODE":352.8857,"ARG_OF_PERICENTER":96.8838,"MEAN_ANOMALY":263.2483,"EPHEMERIS_TYPE":0,"CLASSIFICATION_TYPE":"U","NORAD_CAT_ID":54137,"ELEMENT_SET_NO":999,"REV_AT_EPOCH":14505,"BSTAR":4.5256664e-5,"MEAN_MOTION_DOT":3.1e-7,"MEAN_MOTION_DDOT":0},{"OBJECT_NAME":"ONEWEB-0520","OBJECT_ID":"2022-138AB","EPOCH":"2025-10-19T04:25:03.820800","MEAN_MOTION":13.1972454,"ECCENTRICITY":0.00018455,"INCLINATION":87.9269,"RA_OF_ASC_NODE":352.8978,"ARG_OF_PERICENTER":109.1883,"MEAN_ANOMALY":250.945,"EPHEMERIS_TYPE":0,"CLASSIFICATION_TYPE":"U","NORAD_CAT_ID":54138,"ELEMENT_SET_NO":999,"REV_AT_EPOCH":14503,"BSTAR":1.3152598e-5,"MEAN_MOTION_DOT":1.8e-7,"MEAN_MOTION_DDOT":0},{"OBJECT_NAME":"ONEWEB-0521","OBJECT_ID":"2022-138AC","EPOCH":"2025-10-19T05:12:50.232384","MEAN_MOTION":13.19724663,"ECCENTRICITY":0.00016814,"INCLINATION":87.9267,"RA_OF_ASC_NODE":352.8769,"ARG_OF_PERICENTER":93.1555,"MEAN_ANOMALY":266.977,"EPHEMERIS_TYPE":0,"CLASSIFICATION_TYPE":"U","NORAD_CAT_ID":54139,"ELEMENT_SET_NO":999,"REV_AT_EPOCH":14498,"BSTAR":-2.6174698e-5,"MEAN_MOTION_DOT":2.0e-8,"MEAN_MOTION_DDOT":0},{"OBJECT_NAME":"ONEWEB-0522","OBJECT_ID":"2022-138AD","EPOCH":"2025-10-19T04:43:16.698720","MEAN_MOTION":13.19725891,"ECCENTRICITY":0.0001837,"INCLINATION":87.9267,"RA_OF_ASC_NODE":352.8815,"ARG_OF_PERICENTER":105.4344,"MEAN_ANOMALY":254.6992,"EPHEMERIS_TYPE":0,"CLASSIFICATION_TYPE":"U","NORAD_CAT_ID":54140,"ELEMENT_SET_NO":999,"REV_AT_EPOCH":14502,"BSTAR":0.00021202956,"MEAN_MOTION_DOT":9.8e-7,"MEAN_MOTION_DDOT":0},{"OBJECT_NAME":"ONEWEB-0523","OBJECT_ID":"2022-138AE","EPOCH":"2025-10-19T06:36:34.039008","MEAN_MOTION":13.20770137,"ECCENTRICITY":0.00023193,"INCLINATION":87.9204,"RA_OF_ASC_NODE":322.4889,"ARG_OF_PERICENTER":75.3321,"MEAN_ANOMALY":284.8069,"EPHEMERIS_TYPE":0,"CLASSIFICATION_TYPE":"U","NORAD_CAT_ID":54141,"ELEMENT_SET_NO":999,"REV_AT_EPOCH":14750,"BSTAR":0.00035545476,"MEAN_MOTION_DOT":1.58e-6,"MEAN_MOTION_DDOT":0},{"OBJECT_NAME":"ONEWEB-0524","OBJECT_ID":"2022-138AF","EPOCH":"2025-10-19T02:42:29.493504","MEAN_MOTION":13.20780054,"ECCENTRICITY":0.00027239,"INCLINATION":87.9214,"RA_OF_ASC_NODE":322.5228,"ARG_OF_PERICENTER":92.8579,"MEAN_ANOMALY":267.2866,"EPHEMERIS_TYPE":0,"CLASSIFICATION_TYPE":"U","NORAD_CAT_ID":54142,"ELEMENT_SET_NO":999,"REV_AT_EPOCH":14748,"BSTAR":0.0025773797,"MEAN_MOTION_DOT":1.061e-5,"MEAN_MOTION_DDOT":0},{"OBJECT_NAME":"ONEWEB-0525","OBJECT_ID":"2022-138AG","EPOCH":"2025-10-19T05:10:33.448224","MEAN_MOTION":13.19724429,"ECCENTRICITY":0.00018207,"INCLINATION":87.9268,"RA_OF_ASC_NODE":352.9003,"ARG_OF_PERICENTER":109.3725,"MEAN_ANOMALY":250.7604,"EPHEMERIS_TYPE":0,"CLASSIFICATION_TYPE":"U","NORAD_CAT_ID":54143,"ELEMENT_SET_NO":999,"REV_AT_EPOCH":14504,"BSTAR":-5.3895897e-5,"MEAN_MOTION_DOT":-9.0e-8,"MEAN_MOTION_DDOT":0},{"OBJECT_NAME":"ONEWEB-0526","OBJECT_ID":"2022-138AH","EPOCH":"2025-10-19T05:58:19.327584","MEAN_MOTION":13.1972456,"ECCENTRICITY":0.00019191,"INCLINATION":87.9268,"RA_OF_ASC_NODE":352.8802,"ARG_OF_PERICENTER":101.9385,"MEAN_ANOMALY":258.1963,"EPHEMERIS_TYPE":0,"CLASSIFICATION_TYPE":"U","NORAD_CAT_ID":54144,"ELEMENT_SET_NO":999,"REV_AT_EPOCH":14502,"BSTAR":-1.8171051e-5,"MEAN_MOTION_DOT":6.0e-8,"MEAN_MOTION_DDOT":0},{"OBJECT_NAME":"ONEWEB-0529","OBJECT_ID":"2022-138AJ","EPOCH":"2025-10-19T06:02:51.929952","MEAN_MOTION":13.19724058,"ECCENTRICITY":0.00018799,"INCLINATION":87.9253,"RA_OF_ASC_NODE":352.9152,"ARG_OF_PERICENTER":106.9675,"MEAN_ANOMALY":253.1664,"EPHEMERIS_TYPE":0,"CLASSIFICATION_TYPE":"U","NORAD_CAT_ID":54145,"ELEMENT_SET_NO":999,"REV_AT_EPOCH":14504,"BSTAR":-0.00012362671,"MEAN_MOTION_DOT":-3.7e-7,"MEAN_MOTION_DDOT":0},{"OBJECT_NAME":"ONEWEB-0531","OBJECT_ID":"2022-138AK","EPOCH":"2025-10-19T07:49:18.954048","MEAN_MOTION":13.2077112,"ECCENTRICITY":0.00025431,"INCLINATION":87.9207,"RA_OF_ASC_NODE":322.4708,"ARG_OF_PERICENTER":79.8909,"MEAN_ANOMALY":280.2511,"EPHEMERIS_TYPE":0,"CLASSIFICATION_TYPE":"U","NORAD_CAT_ID":54146,"ELEMENT_SET_NO":999,"REV_AT_EPOCH":14751,"BSTAR":2.485728e-6,"MEAN_MOTION_DOT":1.4e-7,"MEAN_MOTION_DDOT":0},{"OBJECT_NAME":"ONEWEB-0535","OBJECT_ID":"2022-138AL","EPOCH":"2025-10-19T05:01:27.880608","MEAN_MOTION":13.19724371,"ECCENTRICITY":0.00019346,"INCLINATION":87.9268,"RA_OF_ASC_NODE":352.8834,"ARG_OF_PERICENTER":88.3215,"MEAN_ANOMALY":271.8139,"EPHEMERIS_TYPE":0,"CLASSIFICATION_TYPE":"U","NORAD_CAT_ID":54147,"ELEMENT_SET_NO":999,"REV_AT_EPOCH":14505,"BSTAR":0.00020017543,"MEAN_MOTION_DOT":9.3e-7,"MEAN_MOTION_DDOT":0},{"OBJECT_NAME":"ONEWEB-0536","OBJECT_ID":"2022-138AM","EPOCH":"2025-10-19T07:31:06.647232","MEAN_MOTION":13.20769575,"ECCENTRICITY":0.00027794,"INCLINATION":87.9207,"RA_OF_ASC_NODE":322.5203,"ARG_OF_PERICENTER":82.1297,"MEAN_ANOMALY":278.0152,"EPHEMERIS_TYPE":0,"CLASSIFICATION_TYPE":"U","NORAD_CAT_ID":54148,"ELEMENT_SET_NO":999,"REV_AT_EPOCH":14750,"BSTAR":-3.6262974e-5,"MEAN_MOTION_DOT":-2.0e-8,"MEAN_MOTION_DDOT":0},{"OBJECT_NAME":"ONEWEB-0527","OBJECT_ID":"2022-166A","EPOCH":"2025-10-19T05:30:03.651552","MEAN_MOTION":13.21887803,"ECCENTRICITY":0.00019376,"INCLINATION":87.9165,"RA_OF_ASC_NODE":292.0776,"ARG_OF_PERICENTER":91.7694,"MEAN_ANOMALY":268.3662,"EPHEMERIS_TYPE":0,"CLASSIFICATION_TYPE":"U","NORAD_CAT_ID":54642,"ELEMENT_SET_NO":999,"REV_AT_EPOCH":13970,"BSTAR":4.2883469e-5,"MEAN_MOTION_DOT":3.1e-7,"MEAN_MOTION_DDOT":0},{"OBJECT_NAME":"ONEWEB-0528","OBJECT_ID":"2022-166B","EPOCH":"2025-10-19T07:28:27.520032","MEAN_MOTION":13.21861411,"ECCENTRICITY":0.00019154,"INCLINATION":87.9169,"RA_OF_ASC_NODE":292.0646,"ARG_OF_PERICENTER":92.7786,"MEAN_ANOMALY":267.3567,"EPHEMERIS_TYPE":0,"CLASSIFICATION_TYPE":"U","NORAD_CAT_ID":54643,"ELEMENT_SET_NO":999,"REV_AT_EPOCH":13972,"BSTAR":0.00011139504,"MEAN_MOTION_DOT":5.9e-7,"MEAN_MOTION_DDOT":0}]
